[{"OBJECT_NAME":"JILIN-1 KUANFU 01","OBJECT_ID":"2020-003A","EPOCH":"2026-03-09T21:54:33.175008","MEAN_MOTION":15.10079256,"ECCENTRICITY":0.00082994,"INCLINATION":97.5094,"RA_OF_ASC_NODE":144.8213,"ARG_OF_PERICENTER":285.3859,"MEAN_ANOMALY":74.6453,"EPHEMERIS_TYPE":0,"CLASSIFICATION_TYPE":"U","NORAD_CAT_ID":45016,"ELEMENT_SET_NO":999,"REV_AT_EPOCH":34034,"BSTAR":0.00024799476,"MEAN_MOTION_DOT":3.977e-5,"MEAN_MOTION_DDOT":0},{"OBJECT_NAME":"STARLINK-3547","OBJECT_ID":"2022-022AP","EPOCH":"2026-03-09T22:42:59.868864","MEAN_MOTION":15.08839838,"ECCENTRICITY":0.00013817,"INCLINATION":53.2184,"RA_OF_ASC_NODE":357.9683,"ARG_OF_PERICENTER":96.0513,"MEAN_ANOMALY":264.0637,"EPHEMERIS_TYPE":0,"CLASSIFICATION_TYPE":"U","NORAD_CAT_ID":51889,"ELEMENT_SET_NO":999,"REV_AT_EPOCH":22328,"BSTAR":-1.74758e-6,"MEAN_MOTION_DOT":-3.16e-6,"MEAN_MOTION_DDOT":0}]
